satname,norad_id,inclination_deg,eccentricity,mean_motion_rev_per_day,perigee_km,apogee_km,l1,l2
STARLINK-1572,46060,53.1604,0.000117,15.30202364,474.4061695842438,476.00985231680534,1 46060U 20055AK  26167.74647500  .00003288  00000+0  12309-3 0  9991,2 46060  53.1604  14.0049 0001170  91.4341 268.6794 15.30202364324205
STARLINK-1573,46061,53.1608,8.39e-05,15.31700873,470.16277229775005,471.31201342087206,1 46061U 20055AL  26167.84638630  .00000068  00000+0  13957-4 0  9991,2 46061  53.1608  12.5994 0000839  90.5048 269.6049 15.31700873324266
STARLINK-1577,46063,53.1597,0.0001202,15.31709457,469.888572919489,471.5350361721021,1 46063U 20055AN  26167.74385544  .00002403  00000+0  89153-4 0  9991,2 46063  53.1597  13.0726 0001202  87.5550 272.5589 15.31709457324240
STARLINK-1583,46064,53.1606,0.0001284,15.31707596,469.83795913968606,471.59674493728926,1 46064U 20055AP  26167.75790196  .00001318  00000+0  54231-4 0  9999,2 46064  53.1606  13.5103 0001284  84.6040 275.5108 15.31707596324239
STARLINK-1536,46070,53.1584,9.93e-05,15.317102,470.0294992587851,471.38968019150434,1 46070U 20055AV  26167.82444447  .00004179  00000+0  14631-3 0  9996,2 46070  53.1584   0.5870 0000993  98.6045 261.5069 15.31710200324422
STARLINK-1542,46073,53.1594,0.0001166,15.31707606,469.9187458152828,471.51589864322614,1 46073U 20055AY  26167.71831537  .00004623  00000+0  16061-3 0  9990,2 46073  53.1594   4.0496 0001166  80.7455 279.3678 15.31707606324350
STARLINK-1549,46074,53.0507,0.0002443,15.30074963,473.91406766395994,477.2627979104209,1 46074U 20055AZ  26167.82001904  .00039935  00000+0  13583-2 0  9999,2 46074  53.0507   0.7583 0002443 161.1290 198.9800 15.30074963324393
STARLINK-1551,46075,53.1612,0.0001045,15.31712163,469.9880343383438,471.41944205262644,1 46075U 20055BA  26167.75019997  .00001437  00000+0  58024-4 0  9990,2 46075  53.1612   0.8700 0001045  73.5355 286.5761 15.31712163324403
STARLINK-1552,46076,53.1606,0.0001014,15.31708193,470.02109877699604,471.410046078684,1 46076U 20055BB  26167.73616144  .00002782  00000+0  10135-3 0  9990,2 46076  53.1606   0.5172 0001014  79.5738 280.5378 15.31708193324398
STARLINK-1559,46077,53.0239,3.71e-05,15.39225153,448.14608156594295,448.6526105628209,1 46077U 20055BC  26167.75722167  .00054749  00000+0  13866-2 0  9999,2 46077  53.0239 329.3269 0000371 278.4741  81.6220 15.39225153324796
STARLINK-1566,46079,53.1607,0.0001099,15.31713878,469.9459389068643,471.45131297744683,1 46079U 20055BE  26167.80605068  .00001604  00000+0  63408-4 0  9998,2 46079  53.1607   0.0459 0001099  74.9650 285.1473 15.31713878324427
STARLINK-1568,46080,53.0595,0.0002976,15.55052598,399.981969092034,404.0175064783625,1 46080U 20055BF  26167.55703926  .00038037  00000+0  56054-3 0  9992,2 46080  53.0595 278.2011 0002976  62.8646 297.2668 15.55052598325537
STARLINK-1578,46082,53.1611,0.0001128,15.31718073,469.91357383476316,471.45866833087894,1 46082U 20055BH  26167.81044250  .00000607  00000+0  31291-4 0  9990,2 46082  53.1611   0.5405 0001128  77.9712 282.1416 15.31718073324412
STARLINK-1579,46083,53.1596,0.0001181,15.31713253,469.8916412996814,471.5093367145837,1 46083U 20055BJ  26167.79673832  .00004683  00000+0  16250-3 0  9997,2 46083  53.1596   0.1420 0001181  79.1814 280.9321 15.31713253324410
STARLINK-1622,46128,53.014,0.0005071,15.88650081,302.6771201513011,309.4562395233934,1 46128U 20057M   26167.91668980  .00184019  00000+0  63075-3 0  9990,2 46128  53.0140  90.0006 0005071 117.8181 263.4481 15.88650081  6007
STARLINK-1623,46129,53.0386,0.000538,15.77116986,335.0001794745194,342.22740332606554,1 46129U 20057N   26167.91668980  .00052014  00000+0  31415-3 0  9993,2 46129  53.0386 128.9529 0005380  69.7675 155.8381 15.77116986  5985
STARLINK-1596,46141,53.034,0.0006524,15.61236895,379.67145478101156,388.4947996029723,1 46141U 20057AA  26167.15839545  .00107760  00000+0  12368-2 0  9994,2 46141  53.0340 116.1700 0006524  64.8888 295.2801 15.61236895322570
STARLINK-1597,46142,53.0385,0.0005167,15.76611848,336.57710241963923,343.5196752004358,1 46142U 20057AB  26167.72869031  .00110665  00000+0  67433-3 0  9993,2 46142  53.0385 169.6588 0005167  53.9256 306.2241 15.76611848321860
STARLINK-1606,46144,53.0301,0.0004964,16.02273922,264.823873043144,271.422280047138,1 46144U 20057AD  26167.83147211  .00542223  14440-3  90893-3 0  9998,2 46144  53.0301 120.5654 0004964 207.7613 152.3153 16.02273922310812
STARLINK-1608,46146,53.157,0.0005777,15.36839456,451.51448510761566,459.41002568730164,1 46146U 20057AF  26167.82886383  .00043403  00000+0  11913-2 0  9993,2 46146  53.1570 207.0904 0005777   7.5725 352.5365 15.36839456321384
STARLINK-1667,46155,53.0087,0.0004215,15.96979891,279.9957398843726,285.6109125793864,1 46155U 20057AQ  26167.91668980  .00330464  55265-4  75172-3 0  9996,2 46155  53.0087  88.7110 0004215 143.5025 127.8157 15.96979891  6015
STARLINK-1545,46156,53.0354,0.0002341,15.90496087,299.3301129591191,302.45723512070435,1 46156U 20057AR  26167.91668980  .00257559  35490-4  82928-3 0  9995,2 46156  53.0354 125.4205 0002341 178.7052 246.4961 15.90496087  6000
STARLINK-1595,46159,53.0394,0.0005933,15.74388227,342.3829646862205,350.3622677968533,1 46159U 20057AU  26167.91668980  .00134101  00000+0  89684-3 0  9995,2 46159  53.0394 171.6209 0005933  51.9021  43.4521 15.74388227  5983
STARLINK-1598,46160,53.0423,0.0001338,15.73843758,347.0234696145062,348.8233633819609,1 46160U 20057AV  26167.68574654  .00086482  00000+0  59747-3 0  9990,2 46160  53.0423 158.9539 0001338 359.9058   0.1959 15.73843758323261
STARLINK-1626,46167,53.0384,0.0001669,15.77386332,336.72826073979104,338.9700569196075,1 46167U 20057BC  26167.71942957  .00106691  00000+0  62903-3 0  9999,2 46167  53.0384 168.0188 0001669  81.8656 278.2553 15.77386332321897
STARLINK-1633,46171,53.0349,0.0002293,15.86405771,310.83521764365923,313.9034838561138,1 46171U 20057BG  26167.91668980  .00169390  00000+0  65028-3 0  9993,2 46171  53.0349 127.5277 0002293 166.5311  97.5731 15.86405771  5994
STARLINK-1635,46172,53.0319,0.0002965,15.94368643,288.0970515732206,292.0513008006992,1 46172U 20057BH  26167.91668980  .00328245  53140-4  86087-3 0  9996,2 46172  53.0319 124.9489 0002965 179.9178 218.2877 15.94368643  5991
STARLINK-1640,46173,53.0388,0.0005945,15.74377951,342.40413853022346,350.39961525484887,1 46173U 20057BJ  26167.74547416  .00107548  00000+0  72266-3 0  9995,2 46173  53.0388 173.5028 0005945  44.5089 315.6406 15.74377951321818
